[{"OBJECT_NAME":"STARLINK-31963","OBJECT_ID":"2024-100J","EPOCH":"2026-03-09T05:18:09.209088","MEAN_MOTION":15.2758323,"ECCENTRICITY":7.539e-5,"INCLINATION":43.0038,"RA_OF_ASC_NODE":128.1788,"ARG_OF_PERICENTER":236.4375,"MEAN_ANOMALY":123.6405,"EPHEMERIS_TYPE":0,"CLASSIFICATION_TYPE":"U","NORAD_CAT_ID":59893,"ELEMENT_SET_NO":999,"REV_AT_EPOCH":10108,"BSTAR":-9.6154661e-5,"MEAN_MOTION_DOT":-2.907e-5,"MEAN_MOTION_DDOT":0},{"OBJECT_NAME":"ELECTRON KICK STAGE R\/B","OBJECT_ID":"2022-147B","EPOCH":"2026-03-09T22:28:20.187264","MEAN_MOTION":15.28920172,"ECCENTRICITY":0.00095089,"INCLINATION":97.642,"RA_OF_ASC_NODE":85.1135,"ARG_OF_PERICENTER":110.4683,"MEAN_ANOMALY":249.7578,"EPHEMERIS_TYPE":0,"CLASSIFICATION_TYPE":"U","NORAD_CAT_ID":54228,"ELEMENT_SET_NO":999,"REV_AT_EPOCH":18390,"BSTAR":0.00083201931,"MEAN_MOTION_DOT":0.00023374,"MEAN_MOTION_DDOT":0}]
